KUIPER-00008            
1 63724U 25088A   26073.91668981  .00029464  00000+0  37166-2 0  9990
2 63724  51.9000  64.2725 0000934 136.5338  82.2448 14.81706440  4591
KUIPER-00009            
1 63725U 25088B   26073.71233429  .00095547  00000+0  12257-1 0  9992
2 63725  51.9021  84.4258 0006816 114.8465 245.3207 14.80356926 48520
KUIPER-00010            
1 63726U 25088C   26073.16462155 -.00000713  00000+0 -64545-4 0  9995
2 63726  51.9010  63.3042 0000664  99.3943 260.7094 14.79928190 48395
KUIPER-00011            
1 63727U 25088D   26073.25801221  .00008050  00000+0  10850-2 0  9995
2 63727  51.9021  70.4588 0000181 218.8938 141.2012 14.79884207 48436
KUIPER-00012            
1 63728U 25088E   26073.24024697  .00001683  00000+0  24991-3 0  9996
2 63728  51.9021  55.4580 0000869  72.6144 287.4914 14.79901228 48594
KUIPER-00013            
1 63729U 25088F   26073.44153435  .00003833  00000+0  53219-3 0  9996
2 63729  51.9010  87.0834 0002196  65.3204 294.7987 14.79883692 48277
KUIPER-00014            
1 63730U 25088G   26073.57493210  .00087254  00000+0  11258-1 0  9994
2 63730  51.9009  87.4638 0001749  78.8983 281.2176 14.80187692 48099
KUIPER-00015            
1 63731U 25088H   26073.77514388 -.00020881  00000+0 -24901-2 0  9992
2 63731  51.8986  95.7156 0010658  85.6025 274.6156 14.83525300 48451
KUIPER-00016            
1 63732U 25088J   26073.23466506  .00004279  00000+0  58963-3 0  9999
2 63732  51.8992  91.5001 0006475  88.1474 272.0230 14.79955672 48000
KUIPER-00018            
1 63733U 25088K   26073.31456041  .00003140  00000+0  44094-3 0  9998
2 63733  51.9015  80.1183 0000685  96.4256 263.6784 14.79914700 48175
KUIPER-00019            
1 63734U 25088L   26073.38314955  .00001466  00000+0  22129-3 0  9997
2 63734  51.9002  78.3409 0000699  75.6347 284.4693 14.79935025 48204
KUIPER-00020            
1 63735U 25088M   26073.71674919 -.00025941  00000+0 -33848-2 0  9999
2 63735  51.9003  80.8573 0007221  91.4268 268.7521 14.79934665 48408
KUIPER-00021            
1 63736U 25088N   26072.43215660  .00004025  00000+0  55581-3 0  9999
2 63736  51.9000  87.5329 0003463  91.8245 268.3114 14.80006332 48038
KUIPER-00023            
1 63737U 25088P   26073.71449942  .00004185  00000+0  57785-3 0  9999
2 63737  51.8994  83.3263 0008155 112.4775 247.7051 14.79915154 48504
KUIPER-00024            
1 63738U 25088Q   26073.72787518 -.00001095  00000+0 -11463-3 0  9997
2 63738  51.9039  70.8352 0001047  73.0160 287.0917 14.79915261 48809
KUIPER-00025            
1 63739U 25088R   26073.27568157  .00004111  00000+0  52136-3 0  9996
2 63739  51.9023  80.9592 0000719  28.2475 331.8528 14.83569050 48483
KUIPER-00027            
1 63740U 25088S   26073.25237975  .00001508  00000+0  22651-3 0  9993
2 63740  51.9019  75.4077 0000827  84.5485 275.5572 14.79974924 48290
