[{"OBJECT_NAME":"KUIPER-00008","OBJECT_ID":"2025-088A","EPOCH":"2026-03-14T22:00:01.999584","MEAN_MOTION":14.8170644,"ECCENTRICITY":9.349e-5,"INCLINATION":51.9,"RA_OF_ASC_NODE":64.2725,"ARG_OF_PERICENTER":136.5338,"MEAN_ANOMALY":82.2448,"EPHEMERIS_TYPE":0,"CLASSIFICATION_TYPE":"U","NORAD_CAT_ID":63724,"ELEMENT_SET_NO":999,"REV_AT_EPOCH":459,"BSTAR":0.003716588,"MEAN_MOTION_DOT":0.00029464,"MEAN_MOTION_DDOT":0},{"OBJECT_NAME":"KUIPER-00009","OBJECT_ID":"2025-088B","EPOCH":"2026-03-14T17:05:45.682656","MEAN_MOTION":14.80356926,"ECCENTRICITY":0.00068169,"INCLINATION":51.9021,"RA_OF_ASC_NODE":84.4258,"ARG_OF_PERICENTER":114.8465,"MEAN_ANOMALY":245.3207,"EPHEMERIS_TYPE":0,"CLASSIFICATION_TYPE":"U","NORAD_CAT_ID":63725,"ELEMENT_SET_NO":999,"REV_AT_EPOCH":4852,"BSTAR":0.012257408,"MEAN_MOTION_DOT":0.00095547,"MEAN_MOTION_DDOT":0},{"OBJECT_NAME":"KUIPER-00010","OBJECT_ID":"2025-088C","EPOCH":"2026-03-14T03:57:03.301920","MEAN_MOTION":14.7992819,"ECCENTRICITY":6.641e-5,"INCLINATION":51.901,"RA_OF_ASC_NODE":63.3042,"ARG_OF_PERICENTER":99.3943,"MEAN_ANOMALY":260.7094,"EPHEMERIS_TYPE":0,"CLASSIFICATION_TYPE":"U","NORAD_CAT_ID":63726,"ELEMENT_SET_NO":999,"REV_AT_EPOCH":4839,"BSTAR":-6.4545203e-5,"MEAN_MOTION_DOT":-7.13e-6,"MEAN_MOTION_DDOT":0},{"OBJECT_NAME":"KUIPER-00011","OBJECT_ID":"2025-088D","EPOCH":"2026-03-14T06:11:32.254944","MEAN_MOTION":14.79884207,"ECCENTRICITY":1.813e-5,"INCLINATION":51.9021,"RA_OF_ASC_NODE":70.4588,"ARG_OF_PERICENTER":218.8938,"MEAN_ANOMALY":141.2012,"EPHEMERIS_TYPE":0,"CLASSIFICATION_TYPE":"U","NORAD_CAT_ID":63727,"ELEMENT_SET_NO":999,"REV_AT_EPOCH":4843,"BSTAR":0.0010849718,"MEAN_MOTION_DOT":8.05e-5,"MEAN_MOTION_DDOT":0},{"OBJECT_NAME":"KUIPER-00012","OBJECT_ID":"2025-088E","EPOCH":"2026-03-14T05:45:57.338208","MEAN_MOTION":14.79901228,"ECCENTRICITY":8.692e-5,"INCLINATION":51.9021,"RA_OF_ASC_NODE":55.458,"ARG_OF_PERICENTER":72.6144,"MEAN_ANOMALY":287.4914,"EPHEMERIS_TYPE":0,"CLASSIFICATION_TYPE":"U","NORAD_CAT_ID":63728,"ELEMENT_SET_NO":999,"REV_AT_EPOCH":4859,"BSTAR":0.00024991224,"MEAN_MOTION_DOT":1.683e-5,"MEAN_MOTION_DDOT":0},{"OBJECT_NAME":"KUIPER-00013","OBJECT_ID":"2025-088F","EPOCH":"2026-03-14T10:35:48.567840","MEAN_MOTION":14.79883692,"ECCENTRICITY":0.0002196,"INCLINATION":51.901,"RA_OF_ASC_NODE":87.0834,"ARG_OF_PERICENTER":65.3204,"MEAN_ANOMALY":294.7987,"EPHEMERIS_TYPE":0,"CLASSIFICATION_TYPE":"U","NORAD_CAT_ID":63729,"ELEMENT_SET_NO":999,"REV_AT_EPOCH":4827,"BSTAR":0.00053219483,"MEAN_MOTION_DOT":3.833e-5,"MEAN_MOTION_DDOT":0},{"OBJECT_NAME":"KUIPER-00014","OBJECT_ID":"2025-088G","EPOCH":"2026-03-14T13:47:54.133440","MEAN_MOTION":14.80187692,"ECCENTRICITY":0.00017491,"INCLINATION":51.9009,"RA_OF_ASC_NODE":87.4638,"ARG_OF_PERICENTER":78.8983,"MEAN_ANOMALY":281.2176,"EPHEMERIS_TYPE":0,"CLASSIFICATION_TYPE":"U","NORAD_CAT_ID":63730,"ELEMENT_SET_NO":999,"REV_AT_EPOCH":4809,"BSTAR":0.011258135,"MEAN_MOTION_DOT":0.00087254,"MEAN_MOTION_DDOT":0},{"OBJECT_NAME":"KUIPER-00015","OBJECT_ID":"2025-088H","EPOCH":"2026-03-14T18:36:12.431232","MEAN_MOTION":14.835253,"ECCENTRICITY":0.00106584,"INCLINATION":51.8986,"RA_OF_ASC_NODE":95.7156,"ARG_OF_PERICENTER":85.6025,"MEAN_ANOMALY":274.6156,"EPHEMERIS_TYPE":0,"CLASSIFICATION_TYPE":"U","NORAD_CAT_ID":63731,"ELEMENT_SET_NO":999,"REV_AT_EPOCH":4845,"BSTAR":-0.0024900867,"MEAN_MOTION_DOT":-0.00020881,"MEAN_MOTION_DDOT":0},{"OBJECT_NAME":"KUIPER-00016","OBJECT_ID":"2025-088J","EPOCH":"2026-03-14T05:37:55.061184","MEAN_MOTION":14.79955672,"ECCENTRICITY":0.00064752,"INCLINATION":51.8992,"RA_OF_ASC_NODE":91.5001,"ARG_OF_PERICENTER":88.1474,"MEAN_ANOMALY":272.023,"EPHEMERIS_TYPE":0,"CLASSIFICATION_TYPE":"U","NORAD_CAT_ID":63732,"ELEMENT_SET_NO":999,"REV_AT_EPOCH":4800,"BSTAR":0.00058962947,"MEAN_MOTION_DOT":4.279e-5,"MEAN_MOTION_DDOT":0},{"OBJECT_NAME":"KUIPER-00018","OBJECT_ID":"2025-088K","EPOCH":"2026-03-14T07:32:58.019424","MEAN_MOTION":14.799147,"ECCENTRICITY":6.852e-5,"INCLINATION":51.9015,"RA_OF_ASC_NODE":80.1183,"ARG_OF_PERICENTER":96.4256,"MEAN_ANOMALY":263.6784,"EPHEMERIS_TYPE":0,"CLASSIFICATION_TYPE":"U","NORAD_CAT_ID":63733,"ELEMENT_SET_NO":999,"REV_AT_EPOCH":4817,"BSTAR":0.00044094074,"MEAN_MOTION_DOT":3.14e-5,"MEAN_MOTION_DDOT":0},{"OBJECT_NAME":"KUIPER-00019","OBJECT_ID":"2025-088L","EPOCH":"2026-03-14T09:11:44.121120","MEAN_MOTION":14.79935025,"ECCENTRICITY":6.996e-5,"INCLINATION":51.9002,"RA_OF_ASC_NODE":78.3409,"ARG_OF_PERICENTER":75.6347,"MEAN_ANOMALY":284.4693,"EPHEMERIS_TYPE":0,"CLASSIFICATION_TYPE":"U","NORAD_CAT_ID":63734,"ELEMENT_SET_NO":999,"REV_AT_EPOCH":4820,"BSTAR":0.00022129028,"MEAN_MOTION_DOT":1.466e-5,"MEAN_MOTION_DDOT":0},{"OBJECT_NAME":"KUIPER-00020","OBJECT_ID":"2025-088M","EPOCH":"2026-03-14T17:12:07.130016","MEAN_MOTION":14.79934665,"ECCENTRICITY":0.0007221,"INCLINATION":51.9003,"RA_OF_ASC_NODE":80.8573,"ARG_OF_PERICENTER":91.4268,"MEAN_ANOMALY":268.7521,"EPHEMERIS_TYPE":0,"CLASSIFICATION_TYPE":"U","NORAD_CAT_ID":63735,"ELEMENT_SET_NO":999,"REV_AT_EPOCH":4840,"BSTAR":-0.0033848441,"MEAN_MOTION_DOT":-0.00025941,"MEAN_MOTION_DDOT":0},{"OBJECT_NAME":"KUIPER-00021","OBJECT_ID":"2025-088N","EPOCH":"2026-03-13T10:22:18.330240","MEAN_MOTION":14.80006332,"ECCENTRICITY":0.00034631,"INCLINATION":51.9,"RA_OF_ASC_NODE":87.5329,"ARG_OF_PERICENTER":91.8245,"MEAN_ANOMALY":268.3114,"EPHEMERIS_TYPE":0,"CLASSIFICATION_TYPE":"U","NORAD_CAT_ID":63736,"ELEMENT_SET_NO":999,"REV_AT_EPOCH":4803,"BSTAR":0.00055580504,"MEAN_MOTION_DOT":4.025e-5,"MEAN_MOTION_DDOT":0},{"OBJECT_NAME":"KUIPER-00023","OBJECT_ID":"2025-088P","EPOCH":"2026-03-14T17:08:52.749888","MEAN_MOTION":14.79915154,"ECCENTRICITY":0.00081557,"INCLINATION":51.8994,"RA_OF_ASC_NODE":83.3263,"ARG_OF_PERICENTER":112.4775,"MEAN_ANOMALY":247.7051,"EPHEMERIS_TYPE":0,"CLASSIFICATION_TYPE":"U","NORAD_CAT_ID":63737,"ELEMENT_SET_NO":999,"REV_AT_EPOCH":4850,"BSTAR":0.00057785133,"MEAN_MOTION_DOT":4.185e-5,"MEAN_MOTION_DDOT":0},{"OBJECT_NAME":"KUIPER-00024","OBJECT_ID":"2025-088Q","EPOCH":"2026-03-14T17:28:08.415552","MEAN_MOTION":14.79915261,"ECCENTRICITY":0.00010476,"INCLINATION":51.9039,"RA_OF_ASC_NODE":70.8352,"ARG_OF_PERICENTER":73.016,"MEAN_ANOMALY":287.0917,"EPHEMERIS_TYPE":0,"CLASSIFICATION_TYPE":"U","NORAD_CAT_ID":63738,"ELEMENT_SET_NO":999,"REV_AT_EPOCH":4880,"BSTAR":-0.00011463168,"MEAN_MOTION_DOT":-1.095e-5,"MEAN_MOTION_DDOT":0},{"OBJECT_NAME":"KUIPER-00025","OBJECT_ID":"2025-088R","EPOCH":"2026-03-14T06:36:58.887648","MEAN_MOTION":14.8356905,"ECCENTRICITY":7.199e-5,"INCLINATION":51.9023,"RA_OF_ASC_NODE":80.9592,"ARG_OF_PERICENTER":28.2475,"MEAN_ANOMALY":331.8528,"EPHEMERIS_TYPE":0,"CLASSIFICATION_TYPE":"U","NORAD_CAT_ID":63739,"ELEMENT_SET_NO":999,"REV_AT_EPOCH":4848,"BSTAR":0.0005213639,"MEAN_MOTION_DOT":4.111e-5,"MEAN_MOTION_DDOT":0},{"OBJECT_NAME":"KUIPER-00027","OBJECT_ID":"2025-088S","EPOCH":"2026-03-14T06:03:25.610400","MEAN_MOTION":14.79974924,"ECCENTRICITY":8.276e-5,"INCLINATION":51.9019,"RA_OF_ASC_NODE":75.4077,"ARG_OF_PERICENTER":84.5485,"MEAN_ANOMALY":275.5572,"EPHEMERIS_TYPE":0,"CLASSIFICATION_TYPE":"U","NORAD_CAT_ID":63740,"ELEMENT_SET_NO":999,"REV_AT_EPOCH":4829,"BSTAR":0.00022650926,"MEAN_MOTION_DOT":1.508e-5,"MEAN_MOTION_DDOT":0}]
